[{"OBJECT_NAME":"STARLINK-33992","OBJECT_ID":"2025-102E","EPOCH":"2026-03-09T12:46:45.300000","MEAN_MOTION":14.98329614,"ECCENTRICITY":0.00036172,"INCLINATION":70.0008,"RA_OF_ASC_NODE":115.0553,"ARG_OF_PERICENTER":268.2741,"MEAN_ANOMALY":91.8004,"EPHEMERIS_TYPE":0,"CLASSIFICATION_TYPE":"U","NORAD_CAT_ID":64026,"ELEMENT_SET_NO":999,"REV_AT_EPOCH":4601,"BSTAR":0.0003249454,"MEAN_MOTION_DOT":3.786e-5,"MEAN_MOTION_DDOT":0},{"OBJECT_NAME":"FENGYUN 1C DEB","OBJECT_ID":"1999-025DZG","EPOCH":"2026-02-24T08:24:33.782400","MEAN_MOTION":14.7853018,"ECCENTRICITY":0.01019027,"INCLINATION":99.0018,"RA_OF_ASC_NODE":260.336,"ARG_OF_PERICENTER":182.3725,"MEAN_ANOMALY":177.7013,"EPHEMERIS_TYPE":0,"CLASSIFICATION_TYPE":"U","NORAD_CAT_ID":36686,"ELEMENT_SET_NO":999,"REV_AT_EPOCH":66939,"BSTAR":0.00093391276,"MEAN_MOTION_DOT":7.381e-5,"MEAN_MOTION_DDOT":0}]
